{"fetched_at":"2026-07-15T06:35:30.786Z","source":"https://celestrak.org/NORAD/elements/gp.php?GROUP=kuiper&FORMAT=JSON","constellation":"kuiper","records":[{"OBJECT_NAME":"KUIPER-00282","OBJECT_ID":"2026-118A","EPOCH":"2026-07-14T22:00:03.000096","CLASSIFICATION_TYPE":"U","MEAN_MOTION":15.1617485,"ECCENTRICITY":0.0011473,"INCLINATION":51.8764,"RA_OF_ASC_NODE":280.6926,"ARG_OF_PERICENTER":299.494,"MEAN_ANOMALY":154.2952,"EPHEMERIS_TYPE":0,"NORAD_CAT_ID":69267,"ELEMENT_SET_NO":999,"REV_AT_EPOCH":490,"BSTAR":-0.028798519,"MEAN_MOTION_DOT":-0.00531005,"MEAN_MOTION_DDOT":0},{"OBJECT_NAME":"KUIPER-00383","OBJECT_ID":"2026-118B","EPOCH":"2026-07-13T19:14:36.397824","CLASSIFICATION_TYPE":"U","MEAN_MOTION":15.32326372,"ECCENTRICITY":0.00147316,"INCLINATION":51.8579,"RA_OF_ASC_NODE":285.4857,"ARG_OF_PERICENTER":322.22,"MEAN_ANOMALY":37.7749,"EPHEMERIS_TYPE":0,"NORAD_CAT_ID":69268,"ELEMENT_SET_NO":999,"REV_AT_EPOCH":806,"BSTAR":-0.0041128337,"MEAN_MOTION_DOT":-0.0012894,"MEAN_MOTION_DDOT":0},{"OBJECT_NAME":"KUIPER-00527","OBJECT_ID":"2026-118C","EPOCH":"2026-07-14T22:00:03.000096","CLASSIFICATION_TYPE":"U","MEAN_MOTION":15.27330245,"ECCENTRICITY":0.00089898,"INCLINATION":51.869,"RA_OF_ASC_NODE":280.0424,"ARG_OF_PERICENTER":286.7742,"MEAN_ANOMALY":143.0538,"EPHEMERIS_TYPE":0,"NORAD_CAT_ID":69269,"ELEMENT_SET_NO":999,"REV_AT_EPOCH":582,"BSTAR":-0.022001364,"MEAN_MOTION_DOT":-0.00556015,"MEAN_MOTION_DDOT":0},{"OBJECT_NAME":"KUIPER-00562","OBJECT_ID":"2026-118D","EPOCH":"2026-07-14T14:23:04.407648","CLASSIFICATION_TYPE":"U","MEAN_MOTION":15.38076208,"ECCENTRICITY":0.0000688,"INCLINATION":51.8715,"RA_OF_ASC_NODE":280.4015,"ARG_OF_PERICENTER":22.5329,"MEAN_ANOMALY":337.5688,"EPHEMERIS_TYPE":0,"NORAD_CAT_ID":69270,"ELEMENT_SET_NO":999,"REV_AT_EPOCH":820,"BSTAR":0.00024295856,"MEAN_MOTION_DOT":0.00008866,"MEAN_MOTION_DDOT":0},{"OBJECT_NAME":"KUIPER-00570","OBJECT_ID":"2026-118E","EPOCH":"2026-07-14T22:00:03.000096","CLASSIFICATION_TYPE":"U","MEAN_MOTION":15.02305408,"ECCENTRICITY":0.00093029,"INCLINATION":51.8822,"RA_OF_ASC_NODE":281.8117,"ARG_OF_PERICENTER":298.4957,"MEAN_ANOMALY":279.4661,"EPHEMERIS_TYPE":0,"NORAD_CAT_ID":69271,"ELEMENT_SET_NO":999,"REV_AT_EPOCH":565,"BSTAR":-0.0045999693,"MEAN_MOTION_DOT":-0.00061259,"MEAN_MOTION_DDOT":0},{"OBJECT_NAME":"KUIPER-00572","OBJECT_ID":"2026-118F","EPOCH":"2026-07-14T22:00:03.000096","CLASSIFICATION_TYPE":"U","MEAN_MOTION":15.27218112,"ECCENTRICITY":0.00059789,"INCLINATION":51.8727,"RA_OF_ASC_NODE":279.6413,"ARG_OF_PERICENTER":283.0347,"MEAN_ANOMALY":0.4631,"EPHEMERIS_TYPE":0,"NORAD_CAT_ID":69272,"ELEMENT_SET_NO":999,"REV_AT_EPOCH":572,"BSTAR":-0.046287355,"MEAN_MOTION_DOT":-0.01141888,"MEAN_MOTION_DDOT":0},{"OBJECT_NAME":"KUIPER-00581","OBJECT_ID":"2026-118G","EPOCH":"2026-07-14T22:00:03.000096","CLASSIFICATION_TYPE":"U","MEAN_MOTION":15.03937618,"ECCENTRICITY":0.00065595,"INCLINATION":51.9017,"RA_OF_ASC_NODE":281.5158,"ARG_OF_PERICENTER":288.2774,"MEAN_ANOMALY":105.3752,"EPHEMERIS_TYPE":0,"NORAD_CAT_ID":69273,"ELEMENT_SET_NO":999,"REV_AT_EPOCH":587,"BSTAR":-0.049755613,"MEAN_MOTION_DOT":-0.00650766,"MEAN_MOTION_DDOT":0},{"OBJECT_NAME":"KUIPER-00584","OBJECT_ID":"2026-118H","EPOCH":"2026-07-14T22:00:03.000096","CLASSIFICATION_TYPE":"U","MEAN_MOTION":14.91102975,"ECCENTRICITY":0.00148407,"INCLINATION":51.8942,"RA_OF_ASC_NODE":283.4974,"ARG_OF_PERICENTER":311.9616,"MEAN_ANOMALY":133.4487,"EPHEMERIS_TYPE":0,"NORAD_CAT_ID":69274,"ELEMENT_SET_NO":999,"REV_AT_EPOCH":552,"BSTAR":-0.0077526337,"MEAN_MOTION_DOT":-0.00077191,"MEAN_MOTION_DDOT":0},{"OBJECT_NAME":"KUIPER-00587","OBJECT_ID":"2026-118J","EPOCH":"2026-07-14T13:54:15.505632","CLASSIFICATION_TYPE":"U","MEAN_MOTION":15.37092741,"ECCENTRICITY":0.00072439,"INCLINATION":51.8629,"RA_OF_ASC_NODE":280.9805,"ARG_OF_PERICENTER":294.3784,"MEAN_ANOMALY":65.6446,"EPHEMERIS_TYPE":0,"NORAD_CAT_ID":69275,"ELEMENT_SET_NO":999,"REV_AT_EPOCH":819,"BSTAR":-0.000052239488,"MEAN_MOTION_DOT":-0.00002321,"MEAN_MOTION_DDOT":0},{"OBJECT_NAME":"KUIPER-00590","OBJECT_ID":"2026-118K","EPOCH":"2026-07-14T22:00:03.000096","CLASSIFICATION_TYPE":"U","MEAN_MOTION":15.12583763,"ECCENTRICITY":0.00017105,"INCLINATION":51.8815,"RA_OF_ASC_NODE":280.1134,"ARG_OF_PERICENTER":59.9651,"MEAN_ANOMALY":43.0192,"EPHEMERIS_TYPE":0,"NORAD_CAT_ID":69276,"ELEMENT_SET_NO":999,"REV_AT_EPOCH":513,"BSTAR":-0.0025222149,"MEAN_MOTION_DOT":-0.00044582,"MEAN_MOTION_DDOT":0},{"OBJECT_NAME":"KUIPER-00592","OBJECT_ID":"2026-118L","EPOCH":"2026-07-14T22:00:03.000096","CLASSIFICATION_TYPE":"U","MEAN_MOTION":15.20394628,"ECCENTRICITY":0.00013454,"INCLINATION":51.8776,"RA_OF_ASC_NODE":279.8876,"ARG_OF_PERICENTER":168.4214,"MEAN_ANOMALY":50.4455,"EPHEMERIS_TYPE":0,"NORAD_CAT_ID":69277,"ELEMENT_SET_NO":999,"REV_AT_EPOCH":444,"BSTAR":-0.056512096,"MEAN_MOTION_DOT":-0.01150501,"MEAN_MOTION_DDOT":0},{"OBJECT_NAME":"KUIPER-00593","OBJECT_ID":"2026-118M","EPOCH":"2026-07-14T14:26:01.136256","CLASSIFICATION_TYPE":"U","MEAN_MOTION":15.38711199,"ECCENTRICITY":0.00028851,"INCLINATION":51.8709,"RA_OF_ASC_NODE":280.418,"ARG_OF_PERICENTER":279.6018,"MEAN_ANOMALY":80.4643,"EPHEMERIS_TYPE":0,"NORAD_CAT_ID":69278,"ELEMENT_SET_NO":999,"REV_AT_EPOCH":826,"BSTAR":0.00023519283,"MEAN_MOTION_DOT":0.00008754,"MEAN_MOTION_DDOT":0},{"OBJECT_NAME":"KUIPER-00594","OBJECT_ID":"2026-118N","EPOCH":"2026-07-14T14:25:32.719296","CLASSIFICATION_TYPE":"U","MEAN_MOTION":15.37429007,"ECCENTRICITY":0.00019369,"INCLINATION":51.8707,"RA_OF_ASC_NODE":280.4159,"ARG_OF_PERICENTER":62.1837,"MEAN_ANOMALY":297.9346,"EPHEMERIS_TYPE":0,"NORAD_CAT_ID":69279,"ELEMENT_SET_NO":999,"REV_AT_EPOCH":820,"BSTAR":0.00029394088,"MEAN_MOTION_DOT":0.0001058,"MEAN_MOTION_DDOT":0},{"OBJECT_NAME":"KUIPER-00595","OBJECT_ID":"2026-118P","EPOCH":"2026-07-14T14:29:21.302592","CLASSIFICATION_TYPE":"U","MEAN_MOTION":15.37447409,"ECCENTRICITY":0.00012109,"INCLINATION":51.8706,"RA_OF_ASC_NODE":280.4327,"ARG_OF_PERICENTER":0.4399,"MEAN_ANOMALY":359.6589,"EPHEMERIS_TYPE":0,"NORAD_CAT_ID":69280,"ELEMENT_SET_NO":999,"REV_AT_EPOCH":823,"BSTAR":0.00023716943,"MEAN_MOTION_DOT":0.00008464,"MEAN_MOTION_DDOT":0},{"OBJECT_NAME":"KUIPER-00596","OBJECT_ID":"2026-118Q","EPOCH":"2026-07-14T22:00:03.000096","CLASSIFICATION_TYPE":"U","MEAN_MOTION":14.921048,"ECCENTRICITY":0.00134493,"INCLINATION":51.8939,"RA_OF_ASC_NODE":283.3582,"ARG_OF_PERICENTER":279.0375,"MEAN_ANOMALY":262.553,"EPHEMERIS_TYPE":0,"NORAD_CAT_ID":69281,"ELEMENT_SET_NO":999,"REV_AT_EPOCH":507,"BSTAR":-0.0078680389,"MEAN_MOTION_DOT":-0.00080263,"MEAN_MOTION_DDOT":0},{"OBJECT_NAME":"KUIPER-00597","OBJECT_ID":"2026-118R","EPOCH":"2026-07-14T13:34:27.075360","CLASSIFICATION_TYPE":"U","MEAN_MOTION":15.37767027,"ECCENTRICITY":0.0006195,"INCLINATION":51.8651,"RA_OF_ASC_NODE":280.9011,"ARG_OF_PERICENTER":285.677,"MEAN_ANOMALY":74.3533,"EPHEMERIS_TYPE":0,"NORAD_CAT_ID":69282,"ELEMENT_SET_NO":999,"REV_AT_EPOCH":819,"BSTAR":0.00031763,"MEAN_MOTION_DOT":0.000116,"MEAN_MOTION_DDOT":0},{"OBJECT_NAME":"KUIPER-00599","OBJECT_ID":"2026-118S","EPOCH":"2026-07-14T11:50:59.932608","CLASSIFICATION_TYPE":"U","MEAN_MOTION":15.37626435,"ECCENTRICITY":0.00063702,"INCLINATION":51.87,"RA_OF_ASC_NODE":281.185,"ARG_OF_PERICENTER":292.7878,"MEAN_ANOMALY":67.2436,"EPHEMERIS_TYPE":0,"NORAD_CAT_ID":69283,"ELEMENT_SET_NO":999,"REV_AT_EPOCH":818,"BSTAR":-0.0034786576,"MEAN_MOTION_DOT":-0.00128809,"MEAN_MOTION_DDOT":0},{"OBJECT_NAME":"KUIPER-00600","OBJECT_ID":"2026-118T","EPOCH":"2026-07-14T13:49:04.591776","CLASSIFICATION_TYPE":"U","MEAN_MOTION":15.37425766,"ECCENTRICITY":0.00079312,"INCLINATION":51.8644,"RA_OF_ASC_NODE":280.9623,"ARG_OF_PERICENTER":285.9349,"MEAN_ANOMALY":74.0764,"EPHEMERIS_TYPE":0,"NORAD_CAT_ID":69284,"ELEMENT_SET_NO":999,"REV_AT_EPOCH":819,"BSTAR":0.00032416858,"MEAN_MOTION_DOT":0.00011717,"MEAN_MOTION_DDOT":0},{"OBJECT_NAME":"KUIPER-00601","OBJECT_ID":"2026-118U","EPOCH":"2026-07-14T22:00:03.000096","CLASSIFICATION_TYPE":"U","MEAN_MOTION":15.19221221,"ECCENTRICITY":0.00028125,"INCLINATION":51.8847,"RA_OF_ASC_NODE":280.0492,"ARG_OF_PERICENTER":288.1346,"MEAN_ANOMALY":168.4403,"EPHEMERIS_TYPE":0,"NORAD_CAT_ID":69285,"ELEMENT_SET_NO":999,"REV_AT_EPOCH":574,"BSTAR":-0.059672958,"MEAN_MOTION_DOT":-0.01172321,"MEAN_MOTION_DDOT":0},{"OBJECT_NAME":"KUIPER-00602","OBJECT_ID":"2026-118V","EPOCH":"2026-07-14T22:00:03.000096","CLASSIFICATION_TYPE":"U","MEAN_MOTION":15.37227726,"ECCENTRICITY":0.00025055,"INCLINATION":51.8694,"RA_OF_ASC_NODE":278.8705,"ARG_OF_PERICENTER":289.0266,"MEAN_ANOMALY":27.5433,"EPHEMERIS_TYPE":0,"NORAD_CAT_ID":69286,"ELEMENT_SET_NO":999,"REV_AT_EPOCH":462,"BSTAR":-0.00072942098,"MEAN_MOTION_DOT":-0.00027307,"MEAN_MOTION_DDOT":0},{"OBJECT_NAME":"KUIPER-00603","OBJECT_ID":"2026-118W","EPOCH":"2026-07-14T22:00:03.000096","CLASSIFICATION_TYPE":"U","MEAN_MOTION":15.34744022,"ECCENTRICITY":0.00036087,"INCLINATION":51.869,"RA_OF_ASC_NODE":279.0629,"ARG_OF_PERICENTER":281.4617,"MEAN_ANOMALY":290.5366,"EPHEMERIS_TYPE":0,"NORAD_CAT_ID":69287,"ELEMENT_SET_NO":999,"REV_AT_EPOCH":587,"BSTAR":-0.033463768,"MEAN_MOTION_DOT":-0.01052116,"MEAN_MOTION_DDOT":0},{"OBJECT_NAME":"KUIPER-00605","OBJECT_ID":"2026-118X","EPOCH":"2026-07-14T22:00:03.000096","CLASSIFICATION_TYPE":"U","MEAN_MOTION":15.02425072,"ECCENTRICITY":0.00025028,"INCLINATION":51.8863,"RA_OF_ASC_NODE":281.5351,"ARG_OF_PERICENTER":335.4142,"MEAN_ANOMALY":157.4438,"EPHEMERIS_TYPE":0,"NORAD_CAT_ID":69288,"ELEMENT_SET_NO":999,"REV_AT_EPOCH":353,"BSTAR":-0.0046950901,"MEAN_MOTION_DOT":-0.00062643,"MEAN_MOTION_DDOT":0},{"OBJECT_NAME":"KUIPER-00606","OBJECT_ID":"2026-118Y","EPOCH":"2026-07-14T19:22:19.384320","CLASSIFICATION_TYPE":"U","MEAN_MOTION":15.37149925,"ECCENTRICITY":0.00035878,"INCLINATION":51.8713,"RA_OF_ASC_NODE":279.5356,"ARG_OF_PERICENTER":272.7981,"MEAN_ANOMALY":87.2595,"EPHEMERIS_TYPE":0,"NORAD_CAT_ID":69289,"ELEMENT_SET_NO":999,"REV_AT_EPOCH":823,"BSTAR":-0.01212939,"MEAN_MOTION_DOT":-0.00424417,"MEAN_MOTION_DDOT":0}]}
